STARLINK-34077          
1 64009U 25101R   26201.06862792  .00011834  00000+0  43886-3 0  9997
2 64009  43.0066 330.1176 0001465 280.3269  79.7417 15.27580980 67303
STARLINK-34113          
1 64010U 25101S   26200.71485259  .00007918  00000+0  29685-3 0  9998
2 64010  43.0003 332.6238 0001309 271.6005  88.4697 15.27590799 67249
STARLINK-34193          
1 64011U 25101T   26199.73277632  .00007578  00000+0  28453-3 0  9996
2 64011  42.9976 338.1528 0000848 316.8285  43.2500 15.27588313 67093
STARLINK-34078          
1 64012U 25101U   26200.67373460  .00005659  00000+0  21503-3 0  9996
2 64012  43.0030 332.3100 0001681 273.2878  86.7781 15.27579173 67243
STARLINK-34182          
1 64013U 25101V   26201.04355287  .00005015  00000+0  19162-3 0  9990
2 64013  42.9997 327.3271 0001035 269.9887  90.0846 15.27584856 67336
STARLINK-34192          
1 64014U 25101W   26200.72256418  .00005983  00000+0  22678-3 0  9991
2 64014  43.0009 332.6808 0001412 278.4522  81.6170 15.27579515 67240
STARLINK-34093          
1 64015U 25101X   26201.07247097  .00009020  00000+0  33670-3 0  9994
2 64015  43.0041 330.1430 0002174 270.1411  89.9192 15.27600244 67309
STARLINK-34016          
1 64016U 25101Y   26201.06733589  .00007754  00000+0  29100-3 0  9995
2 64016  43.0018 330.1022 0001640 272.6158  87.4506 15.27581854 67300
STARLINK-34161          
1 64017U 25101Z   26200.74940128  .00003082  00000+0  12149-3 0  9994
2 64017  43.0039 332.0172 0001244 276.3627  83.7083 15.27579913 67259
STARLINK-34162          
1 64018U 25101AA  26200.76224638  .00006484  00000+0  24490-3 0  9999
2 64018  43.0033 332.1126 0002002 272.6526  87.4096 15.27585561 67255
STARLINK-34155          
1 64019U 25101AB  26200.76996064  .00005264  00000+0  20071-3 0  9995
2 64019  43.0020 332.1697 0001843 271.8687  88.1953 15.27577369 67253
STARLINK-34141          
1 64020U 25101AC  26200.70071886  .00007774  00000+0  29172-3 0  9996
2 64020  43.0026 332.5067 0001733 269.9098  90.1555 15.27582052 67243
STARLINK-34062          
1 64021U 25101AD  26201.07119258  .00004642  00000+0  17810-3 0  9991
2 64021  43.0006 330.1328 0001212 264.1488  95.9225 15.27584162 67306
STARLINK-34051          
1 64022U 25102A   26201.28481840  .00002000  00000+0  17537-3 0  9997
2 64022  70.0011 140.1386 0003348 266.4027  93.6749 14.98336691 65811
STARLINK-34087          
1 64023U 25102B   26201.23459373  .00000824  00000+0  76830-4 0  9993
2 64023  70.0003 140.3619 0002326 267.1733  92.9160 14.98337682 65811
STARLINK-34184          
1 64024U 25102C   26201.13443790  .00000983  00000+0  90135-4 0  9999
2 64024  70.0012 140.4115 0002820 266.1645  93.9191 14.98341056 65684
STARLINK-34088          
1 64025U 25102D   26201.10960045  .00003504  00000+0  30124-3 0  9997
2 64025  70.0007 140.7235 0002587 267.3409  92.7454 14.98340465 65790
STARLINK-33992          
1 64026U 25102E   26201.11777051  .00002533  00000+0  22001-3 0  9998
2 64026  70.0007 140.7577 0002982 259.5098 100.5725 14.98335430 65870
STARLINK-33967          
1 64027U 25102F   26201.08437421  .00001844  00000+0  16230-3 0  9990
2 64027  70.0011 140.6383 0002974 268.2456  91.8363 14.98334875 65722
STARLINK-33953          
1 64028U 25102G   26201.25543637  .00002596  00000+0  22520-3 0  9991
2 64028  70.0006 140.0292 0003226 259.8523 100.2273 14.98337053 65919
STARLINK-33790          
1 64029U 25102H   26201.23058526  .00000700  00000+0  66463-4 0  9998
2 64029  70.0008 140.3422 0003076 262.6733  97.4076 14.98336727 65856
STARLINK-34030          
1 64030U 25102J   26201.10942227  .00002085  00000+0  18249-3 0  9992
2 64030  70.0004 140.7278 0003224 259.7496 100.3299 14.98334475 65797
STARLINK-34024          
1 64031U 25102K   26201.22624463  .00003487  00000+0  29980-3 0  9996
2 64031  70.0007 140.3316 0002734 267.1226  92.9621 14.98338305 65745
STARLINK-34019          
1 64032U 25102L   26201.13026345  .00003140  00000+0  27077-3 0  9993
2 64032  70.0012 140.3954 0002820 269.8619  90.2217 14.98333388 65806
STARLINK-33860          
1 64033U 25102M   26201.14278588  .00000431  00000+0  43905-4 0  9992
2 64033  70.0014 140.4405 0002971 270.0659  90.0160 14.98336972 65803
STARLINK-33946          
1 64034U 25102N   26201.28065757  .00003394  00000+0  29206-3 0  9998
2 64034  70.0012 140.1222 0002737 268.8834  91.2012 14.98339193 65869
STARLINK-34046          
1 64035U 25102P   26201.11376075  .00003492  00000+0  30036-3 0  9991
2 64035  70.0010 140.6225 0003319 263.4205  96.6576 14.98326790 65566
STARLINK-34085          
1 64036U 25102Q   26201.10124078  .00003226  00000+0  27801-3 0  9996
2 64036  70.0009 140.6926 0003255 266.8193  93.2593 14.98334827 65781
STARLINK-34008          
1 64037U 25102R   26201.28899382  .00002000  00000+0  17531-3 0  9991
2 64037  70.0008 140.1424 0003357 260.9233  99.1546 14.98335441 65823
STARLINK-34079          
1 64038U 25102S   26201.12608260  .00009530  00000+0  80470-3 0  9995
2 64038  70.0001 140.3784 0003935 267.0776  92.9933 14.98362201 65892
