OBJECT_NAME,OBJECT_ID,EPOCH,MEAN_MOTION,ECCENTRICITY,INCLINATION,RA_OF_ASC_NODE,ARG_OF_PERICENTER,MEAN_ANOMALY,EPHEMERIS_TYPE,CLASSIFICATION_TYPE,NORAD_CAT_ID,ELEMENT_SET_NO,REV_AT_EPOCH,BSTAR,MEAN_MOTION_DOT,MEAN_MOTION_DDOT
STARLINK-34077,2025-101R,2026-07-20T01:38:49.452288,15.27580980,.0001465,43.0066,330.1176,280.3269,79.7417,0,U,64009,999,6730,.43885861E-3,.11834E-3,0
STARLINK-34113,2025-101S,2026-07-19T17:09:23.263776,15.27590799,.00013099,43.0003,332.6238,271.6005,88.4697,0,U,64010,999,6724,.29684979E-3,.7918E-4,0
STARLINK-34193,2025-101T,2026-07-18T17:35:11.874048,15.27588313,.0000848,42.9976,338.1528,316.8285,43.2500,0,U,64011,999,6709,.28453335E-3,.7578E-4,0
STARLINK-34078,2025-101U,2026-07-19T16:10:10.669440,15.27579173,.00016817,43.0030,332.3100,273.2878,86.7781,0,U,64012,999,6724,.21502699E-3,.5659E-4,0
STARLINK-34182,2025-101V,2026-07-20T01:02:42.967968,15.27584856,.00010351,42.9997,327.3271,269.9887,90.0846,0,U,64013,999,6733,.19161936E-3,.5015E-4,0
STARLINK-34192,2025-101W,2026-07-19T17:20:29.545152,15.27579515,.00014126,43.0009,332.6808,278.4522,81.6170,0,U,64014,999,6724,.22678328E-3,.5983E-4,0
STARLINK-34093,2025-101X,2026-07-20T01:44:21.491808,15.27600244,.00021749,43.0041,330.1430,270.1411,89.9192,0,U,64015,999,6730,.33670025E-3,.902E-4,0
STARLINK-34016,2025-101Y,2026-07-20T01:36:57.820896,15.27581854,.00016406,43.0018,330.1022,272.6158,87.4506,0,U,64016,999,6730,.29100271E-3,.7754E-4,0
STARLINK-34161,2025-101Z,2026-07-19T17:59:08.270592,15.27579913,.00012448,43.0039,332.0172,276.3627,83.7083,0,U,64017,999,6725,.12149316E-3,.3082E-4,0
STARLINK-34162,2025-101AA,2026-07-19T18:17:38.087232,15.27585561,.00020024,43.0033,332.1126,272.6526,87.4096,0,U,64018,999,6725,.24490381E-3,.6484E-4,0
STARLINK-34155,2025-101AB,2026-07-19T18:28:44.599296,15.27577369,.00018439,43.0020,332.1697,271.8687,88.1953,0,U,64019,999,6725,.20070509E-3,.5264E-4,0
STARLINK-34141,2025-101AC,2026-07-19T16:49:02.109504,15.27582052,.00017332,43.0026,332.5067,269.9098,90.1555,0,U,64020,999,6724,.29172196E-3,.7774E-4,0
STARLINK-34062,2025-101AD,2026-07-20T01:42:31.038912,15.27584162,.00012123,43.0006,330.1328,264.1488,95.9225,0,U,64021,999,6730,.17809644E-3,.4642E-4,0
STARLINK-34051,2025-102A,2026-07-20T06:50:08.309760,14.98336691,.00033486,70.0011,140.1386,266.4027,93.6749,0,U,64022,999,6581,.17537099E-3,.2E-4,0
STARLINK-34087,2025-102B,2026-07-20T05:37:48.898272,14.98337682,.00023266,70.0003,140.3619,267.1733,92.9160,0,U,64023,999,6581,.76829756E-4,.824E-5,0
STARLINK-34184,2025-102C,2026-07-20T03:13:35.434560,14.98341056,.00028207,70.0012,140.4115,266.1645,93.9191,0,U,64024,999,6568,.90134789E-4,.983E-5,0
STARLINK-34088,2025-102D,2026-07-20T02:37:49.478880,14.98340465,.00025873,70.0007,140.7235,267.3409,92.7454,0,U,64025,999,6579,.30124086E-3,.3504E-4,0
STARLINK-33992,2025-102E,2026-07-20T02:49:35.372064,14.98335430,.00029824,70.0007,140.7577,259.5098,100.5725,0,U,64026,999,6587,.22000744E-3,.2533E-4,0
STARLINK-33967,2025-102F,2026-07-20T02:01:29.931744,14.98334875,.00029749,70.0011,140.6383,268.2456,91.8363,0,U,64027,999,6572,.16229747E-3,.1844E-4,0
STARLINK-33953,2025-102G,2026-07-20T06:07:49.702368,14.98337053,.00032265,70.0006,140.0292,259.8523,100.2273,0,U,64028,999,6591,.22519977E-3,.2596E-4,0
STARLINK-33790,2025-102H,2026-07-20T05:32:02.566464,14.98336727,.00030768,70.0008,140.3422,262.6733,97.4076,0,U,64029,999,6585,.6646299E-4,.7E-5,0
STARLINK-34030,2025-102J,2026-07-20T02:37:34.084128,14.98334475,.00032249,70.0004,140.7278,259.7496,100.3299,0,U,64030,999,6579,.18248521E-3,.2085E-4,0
STARLINK-34024,2025-102K,2026-07-20T05:25:47.536032,14.98338305,.0002734,70.0007,140.3316,267.1226,92.9621,0,U,64031,999,6574,.29980362E-3,.3487E-4,0
STARLINK-34019,2025-102L,2026-07-20T03:07:34.762080,14.98333388,.00028205,70.0012,140.3954,269.8619,90.2217,0,U,64032,999,6580,.27077148E-3,.314E-4,0
STARLINK-33860,2025-102M,2026-07-20T03:25:36.700032,14.98336972,.00029713,70.0014,140.4405,270.0659,90.0160,0,U,64033,999,6580,.43905249E-4,.431E-5,0
STARLINK-33946,2025-102N,2026-07-20T06:44:08.814048,14.98339193,.00027375,70.0012,140.1222,268.8834,91.2012,0,U,64034,999,6586,.29206358E-3,.3394E-4,0
STARLINK-34046,2025-102P,2026-07-20T02:43:48.928800,14.98326790,.00033194,70.0010,140.6225,263.4205,96.6576,0,U,64035,999,6556,.30036053E-3,.3492E-4,0
STARLINK-34085,2025-102Q,2026-07-20T02:25:47.203392,14.98334827,.00032552,70.0009,140.6926,266.8193,93.2593,0,U,64036,999,6578,.27800589E-3,.3226E-4,0
STARLINK-34008,2025-102R,2026-07-20T06:56:09.066048,14.98335441,.00033578,70.0008,140.1424,260.9233,99.1546,0,U,64037,999,6582,.17530784E-3,.2E-4,0
STARLINK-34079,2025-102S,2026-07-20T03:01:33.536640,14.98362201,.00039353,70.0001,140.3784,267.0776,92.9933,0,U,64038,999,6589,.80470099E-3,.953E-4,0
